{"type": "FeatureCollection", "features": [ {"type": "Feature", "properties": {"norad_id": 41836, "name": "HIMAWARI-9", "group": "weather", "lat": -0.02839633965454297, "lon": -50.50302294407049, "alt_km": 35782.91231708434, "timestamp": "2025-12-14T05:42:18.099256+00:00", "meta": {"OBJECT_NAME": "HIMAWARI-9", "OBJECT_ID": "2016-064A", "EPOCH": "2025-12-13T15:49:52.076928", "MEAN_MOTION": 1.00270768, "ECCENTRICITY": 0.00010089, "INCLINATION": 0.039, "RA_OF_ASC_NODE": 96.1147, "ARG_OF_PERICENTER": 179.1836, "MEAN_ANOMALY": 185.5252, "EPHEMERIS_TYPE": 0, "CLASSIFICATION_TYPE": "U", "NORAD_CAT_ID": 41836, "ELEMENT_SET_NO": 999, "REV_AT_EPOCH": 3335, "BSTAR": 0, "MEAN_MOTION_DOT": -2.59e-06, "MEAN_MOTION_DDOT": 0}, "tle": {"line1": "1 41836U 16064A   25347.65963052 -.00000259  00000+0  00000+0 0  9991", "line2": "2 41836   0.0390  96.1147 0001008 179.1836 185.5252  1.00270768 33351"}}, "geometry": {"type": "Point", "coordinates": [-50.50302294407049, -0.02839633965454297]}}, {"type": "Feature", "properties": {"norad_id": 41866, "name": "GOES 16", "group": "weather", "lat": -0.017257624523230423, "lon": 64.0615428877133, "alt_km": 35798.8824044232, "timestamp": "2025-12-14T05:42:18.099268+00:00", "meta": {"OBJECT_NAME": "GOES 16", "OBJECT_ID": "2016-071A", "EPOCH": "2025-12-13T14:39:51.283008", "MEAN_MOTION": 1.00271626, "ECCENTRICITY": 0.00031914, "INCLINATION": 0.0654, "RA_OF_ASC_NODE": 104.8375, "ARG_OF_PERICENTER": 158.5891, "MEAN_ANOMALY": 294.4026, "EPHEMERIS_TYPE": 0, "CLASSIFICATION_TYPE": "U", "NORAD_CAT_ID": 41866, "ELEMENT_SET_NO": 999, "REV_AT_EPOCH": 3324, "BSTAR": 0, "MEAN_MOTION_DOT": -7.6e-07, "MEAN_MOTION_DDOT": 0}, "tle": {"line1": "1 41866U 16071A   25347.61101022 -.00000076  00000+0  00000+0 0  9996", "line2": "2 41866   0.0654 104.8375 0003191 158.5891 294.4026  1.00271626 33245"}}, "geometry": {"type": "Point", "coordinates": [64.0615428877133, -0.017257624523230423]}}, {"type": "Feature", "properties": {"norad_id": 41882, "name": "FENGYUN 4A", "group": "weather", "lat": -0.9473858005056477, "lon": -67.41793184794341, "alt_km": 35778.18746307419, "timestamp": "2025-12-14T05:42:18.099280+00:00", "meta": {"OBJECT_NAME": "FENGYUN 4A", "OBJECT_ID": "2016-077A", "EPOCH": "2025-12-13T15:45:00.043200", "MEAN_MOTION": 1.00269297, "ECCENTRICITY": 0.00047722, "INCLINATION": 1.8518, "RA_OF_ASC_NODE": 82.3821, "ARG_OF_PERICENTER": 145.8549, "MEAN_ANOMALY": 214.422, "EPHEMERIS_TYPE": 0, "CLASSIFICATION_TYPE": "U", "NORAD_CAT_ID": 41882, "ELEMENT_SET_NO": 999, "REV_AT_EPOCH": 3307, "BSTAR": 0, "MEAN_MOTION_DOT": -3.42e-06, "MEAN_MOTION_DDOT": 0}, "tle": {"line1": "1 41882U 16077A   25347.65625050 -.00000342  00000+0  00000+0 0  9992", "line2": "2 41882   1.8518  82.3821 0004772 145.8549 214.4220  1.00269297 33072"}}, "geometry": {"type": "Point", "coordinates": [-67.41793184794341, -0.9473858005056477]}}, {"type": "Feature", "properties": {"norad_id": 41884, "name": "CYGFM05", "group": "weather", "lat": 34.58663564863009, "lon": 118.05145879451813, "alt_km": 419.9422731349314, "timestamp": "2025-12-14T05:42:18.099292+00:00", "meta": {"OBJECT_NAME": "CYGFM05", "OBJECT_ID": "2016-078A", "EPOCH": "2025-12-13T13:52:10.970400", "MEAN_MOTION": 15.4767691, "ECCENTRICITY": 0.00101699, "INCLINATION": 34.9605, "RA_OF_ASC_NODE": 41.6559, "ARG_OF_PERICENTER": 190.9761, "MEAN_ANOMALY": 169.074, "EPHEMERIS_TYPE": 0, "CLASSIFICATION_TYPE": "U", "NORAD_CAT_ID": 41884, "ELEMENT_SET_NO": 999, "REV_AT_EPOCH": 49989, "BSTAR": 0.00039715511, "MEAN_MOTION_DOT": 0.00021208, "MEAN_MOTION_DDOT": 0}, "tle": {"line1": "1 41884U 16078A   25347.57790475  .00021208  00000+0  39716-3 0  9993", "line2": "2 41884  34.9605  41.6559 0010169 190.9761 169.0740 15.47676910499896"}}, "geometry": {"type": "Point", "coordinates": [118.05145879451813, 34.58663564863009]}}, {"type": "Feature", "properties": {"norad_id": 41885, "name": "CYGFM04", "group": "weather", "lat": -13.111637455981121, "lon": -7.413271739681744, "alt_km": 418.26843562000704, "timestamp": "2025-12-14T05:42:18.099303+00:00", "meta": {"OBJECT_NAME": "CYGFM04", "OBJECT_ID": "2016-078B", "EPOCH": "2025-12-13T11:15:40.578624", "MEAN_MOTION": 15.50402135, "ECCENTRICITY": 0.00095501, "INCLINATION": 34.9357, "RA_OF_ASC_NODE": 17.1215, "ARG_OF_PERICENTER": 217.126, "MEAN_ANOMALY": 142.8802, "EPHEMERIS_TYPE": 0, "CLASSIFICATION_TYPE": "U", "NORAD_CAT_ID": 41885, "ELEMENT_SET_NO": 999, "REV_AT_EPOCH": 50005, "BSTAR": 0.00056841232, "MEAN_MOTION_DOT": 0.00033488, "MEAN_MOTION_DDOT": 0}, "tle": {"line1": "1 41885U 16078B   25347.46921966  .00033488  00000+0  56841-3 0  9994", "line2": "2 41885  34.9357  17.1215 0009550 217.1260 142.8802 15.50402135500055"}}, "geometry": {"type": "Point", "coordinates": [-7.413271739681744, -13.111637455981121]}}, {"type": "Feature", "properties": {"norad_id": 41886, "name": "CYGFM02", "group": "weather", "lat": -1.6319579690360788, "lon": 8.047249360143507, "alt_km": 415.6601994026132, "timestamp": "2025-12-14T05:42:18.099313+00:00", "meta": {"OBJECT_NAME": "CYGFM02", "OBJECT_ID": "2016-078C", "EPOCH": "2025-12-13T11:11:23.032320", "MEAN_MOTION": 15.51783609, "ECCENTRICITY": 0.00112279, "INCLINATION": 34.9445, "RA_OF_ASC_NODE": 15.4577, "ARG_OF_PERICENTER": 216.6757, "MEAN_ANOMALY": 143.3197, "EPHEMERIS_TYPE": 0, "CLASSIFICATION_TYPE": "U", "NORAD_CAT_ID": 41886, "ELEMENT_SET_NO": 999, "REV_AT_EPOCH": 50018, "BSTAR": 0.00057142195, "MEAN_MOTION_DOT": 0.00035408, "MEAN_MOTION_DDOT": 0}, "tle": {"line1": "1 41886U 16078C   25347.46623880  .00035408  00000+0  57142-3 0  9998", "line2": "2 41886  34.9445  15.4577 0011227 216.6757 143.3197 15.51783609500181"}}, "geometry": {"type": "Point", "coordinates": [8.047249360143507, -1.6319579690360788]}}, {"type": "Feature", "properties": {"norad_id": 41887, "name": "CYGFM01", "group": "weather", "lat": 26.10034259911748, "lon": 175.1274674588696, "alt_km": 413.3610789856639, "timestamp": "2025-12-14T05:42:18.099324+00:00", "meta": {"OBJECT_NAME": "CYGFM01", "OBJECT_ID": "2016-078D", "EPOCH": "2025-12-13T13:40:19.792992", "MEAN_MOTION": 15.48257006, "ECCENTRICITY": 0.0009752, "INCLINATION": 34.9435, "RA_OF_ASC_NODE": 44.0536, "ARG_OF_PERICENTER": 183.0783, "MEAN_ANOMALY": 176.988, "EPHEMERIS_TYPE": 0, "CLASSIFICATION_TYPE": "U", "NORAD_CAT_ID": 41887, "ELEMENT_SET_NO": 999, "REV_AT_EPOCH": 49983, "BSTAR": 0.00040822074, "MEAN_MOTION_DOT": 0.00022248, "MEAN_MOTION_DDOT": 0}, "tle": {"line1": "1 41887U 16078D   25347.56967353  .00022248  00000+0  40822-3 0  9991", "line2": "2 41887  34.9435  44.0536 0009752 183.0783 176.9880 15.48257006499833"}}, "geometry": {"type": "Point", "coordinates": [175.1274674588696, 26.10034259911748]}}, {"type": "Feature", "properties": {"norad_id": 41888, "name": "CYGFM08", "group": "weather", "lat": -2.7493233662445955, "lon": -153.39780592332778, "alt_km": 410.4165316563194, "timestamp": "2025-12-14T05:42:18.099335+00:00", "meta": {"OBJECT_NAME": "CYGFM08", "OBJECT_ID": "2016-078E", "EPOCH": "2025-12-13T11:54:07.901856", "MEAN_MOTION": 15.49465378, "ECCENTRICITY": 0.00116593, "INCLINATION": 34.9468, "RA_OF_ASC_NODE": 27.5187, "ARG_OF_PERICENTER": 205.8189, "MEAN_ANOMALY": 154.1952, "EPHEMERIS_TYPE": 0, "CLASSIFICATION_TYPE": "U", "NORAD_CAT_ID": 41888, "ELEMENT_SET_NO": 999, "REV_AT_EPOCH": 50005, "BSTAR": 0.00053834119, "MEAN_MOTION_DOT": 0.00030691, "MEAN_MOTION_DDOT": 0}, "tle": {"line1": "1 41888U 16078E   25347.49592479  .00030691  00000+0  53834-3 0  9995", "line2": "2 41888  34.9468  27.5187 0011659 205.8189 154.1952 15.49465378500059"}}, "geometry": {"type": "Point", "coordinates": [-153.39780592332778, -2.7493233662445955]}}, {"type": "Feature", "properties": {"norad_id": 41890, "name": "CYGFM07", "group": "weather", "lat": 2.4922018435317166, "lon": -171.94116965186078, "alt_km": 411.04693405070066, "timestamp": "2025-12-14T05:42:18.099345+00:00", "meta": {"OBJECT_NAME": "CYGFM07", "OBJECT_ID": "2016-078G", "EPOCH": "2025-12-13T10:24:08.339904", "MEAN_MOTION": 15.50044004, "ECCENTRICITY": 0.0009911, "INCLINATION": 34.9485, "RA_OF_ASC_NODE": 16.9056, "ARG_OF_PERICENTER": 221.9296, "MEAN_ANOMALY": 138.0668, "EPHEMERIS_TYPE": 0, "CLASSIFICATION_TYPE": "U", "NORAD_CAT_ID": 41890, "ELEMENT_SET_NO": 999, "REV_AT_EPOCH": 50006, "BSTAR": 0.00055257026, "MEAN_MOTION_DOT": 0.00032139, "MEAN_MOTION_DDOT": 0}, "tle": {"line1": "1 41890U 16078G   25347.43342986  .00032139  00000+0  55257-3 0  9998", "line2": "2 41890  34.9485  16.9056 0009911 221.9296 138.0668 15.50044004500061"}}, "geometry": {"type": "Point", "coordinates": [-171.94116965186078, 2.4922018435317166]}}, {"type": "Feature", "properties": {"norad_id": 41891, "name": "CYGFM03", "group": "weather", "lat": 5.58416190161016, "lon": 21.600573205594895, "alt_km": 420.54431300384476, "timestamp": "2025-12-14T05:42:18.099356+00:00", "meta": {"OBJECT_NAME": "CYGFM03", "OBJECT_ID": "2016-078H", "EPOCH": "2025-12-13T12:39:32.533632", "MEAN_MOTION": 15.49943028, "ECCENTRICITY": 0.00093322, "INCLINATION": 34.944, "RA_OF_ASC_NODE": 18.2079, "ARG_OF_PERICENTER": 210.4978, "MEAN_ANOMALY": 149.5202, "EPHEMERIS_TYPE": 0, "CLASSIFICATION_TYPE": "U", "NORAD_CAT_ID": 41891, "ELEMENT_SET_NO": 999, "REV_AT_EPOCH": 50005, "BSTAR": 0.00041382045, "MEAN_MOTION_DOT": 0.0002394, "MEAN_MOTION_DDOT": 0}, "tle": {"line1": "1 41891U 16078H   25347.52745988  .00023940  00000+0  41382-3 0  9992", "line2": "2 41891  34.9440  18.2079 0009332 210.4978 149.5202 15.49943028500052"}}, "geometry": {"type": "Point", "coordinates": [21.600573205594895, 5.58416190161016]}}]}